{
"type": "FeatureCollection",
"name": "burr_ridge_boundary",
"crs": { "type": "name", "properties": { "name": "urn:ogc:def:crs:OGC:1.3:CRS84" } },
"features": [
{ "type": "Feature", "properties": { "STATEFP": "17", "PLACEFP": "09980", "PLACENS": "02397506", "GEOID": "1709980", "GEOIDFQ": "1600000US1709980", "NAME": "Burr Ridge", "NAMELSAD": "Burr Ridge village", "LSAD": "47", "CLASSFP": "C1", "PCICBSA": "N", "MTFCC": "G4110", "FUNCSTAT": "A", "ALAND": 19356024, "AWATER": 351660, "INTPTLAT": "+41.7478977", "INTPTLON": "-087.9201050" }, "geometry": { "type": "Polygon", "coordinates": [ [ [ -87.945262, 41.714722 ], [ -87.945258, 41.715028 ], [ -87.945238, 41.715331 ], [ -87.945199, 41.715693 ], [ -87.94518, 41.715858 ], [ -87.945137, 41.716085 ], [ -87.945018, 41.716563 ], [ -87.944935, 41.716875 ], [ -87.944911, 41.716968 ], [ -87.944665, 41.717584 ], [ -87.944328, 41.718349 ], [ -87.944213, 41.718657 ], [ -87.944088, 41.719038 ], [ -87.943972, 41.719371 ], [ -87.943866, 41.720145 ], [ -87.943858, 41.720892 ], [ -87.943833, 41.720889 ], [ -87.943783, 41.720884 ], [ -87.943784, 41.720931 ], [ -87.943699, 41.720933 ], [ -87.9437, 41.720968 ], [ -87.943546, 41.72097 ], [ -87.943334, 41.720975 ], [ -87.942089, 41.720997 ], [ -87.942095, 41.72121 ], [ -87.942101, 41.721254 ], [ -87.942106, 41.721431 ], [ -87.943557, 41.721426 ], [ -87.943784, 41.721429 ], [ -87.943807, 41.722391 ], [ -87.943858, 41.723279 ], [ -87.943809, 41.72328 ], [ -87.943645, 41.723283 ], [ -87.942645, 41.723303 ], [ -87.941122, 41.723335 ], [ -87.939599, 41.723366 ], [ -87.939204, 41.723364 ], [ -87.938856, 41.723363 ], [ -87.938732, 41.723366 ], [ -87.938295, 41.723375 ], [ -87.93769, 41.723388 ], [ -87.937733, 41.724439 ], [ -87.937758, 41.725215 ], [ -87.937445, 41.725221 ], [ -87.937103, 41.725236 ], [ -87.936544, 41.72524 ], [ -87.93653, 41.724812 ], [ -87.936513, 41.72433 ], [ -87.935916, 41.724343 ], [ -87.93518, 41.724358 ], [ -87.934055, 41.724382 ], [ -87.934024, 41.723473 ], [ -87.933997, 41.723474 ], [ -87.932301, 41.72351 ], [ -87.932184, 41.723512 ], [ -87.93199, 41.723516 ], [ -87.93202, 41.724421 ], [ -87.932549, 41.72441 ], [ -87.932868, 41.724403 ], [ -87.932879, 41.724751 ], [ -87.932906, 41.725319 ], [ -87.932901, 41.725406 ], [ -87.932647, 41.725412 ], [ -87.931686, 41.725443 ], [ -87.930471, 41.725476 ], [ -87.930481, 41.725785 ], [ -87.931696, 41.725757 ], [ -87.931716, 41.726319 ], [ -87.931719, 41.726416 ], [ -87.932474, 41.726399 ], [ -87.93265, 41.726395 ], [ -87.932903, 41.726389 ], [ -87.932892, 41.72606 ], [ -87.934109, 41.726035 ], [ -87.934246, 41.726033 ], [ -87.934264, 41.726624 ], [ -87.934266, 41.726691 ], [ -87.934225, 41.72669 ], [ -87.934131, 41.726693 ], [ -87.933446, 41.726707 ], [ -87.933457, 41.727032 ], [ -87.934142, 41.727017 ], [ -87.934145, 41.727108 ], [ -87.934171, 41.727906 ], [ -87.934173, 41.727984 ], [ -87.934174, 41.728017 ], [ -87.935419, 41.727991 ], [ -87.935449, 41.7289 ], [ -87.934204, 41.728924 ], [ -87.934211, 41.729139 ], [ -87.934215, 41.729256 ], [ -87.934236, 41.729887 ], [ -87.934242, 41.730068 ], [ -87.934259, 41.730619 ], [ -87.934263, 41.730713 ], [ -87.934419, 41.73074 ], [ -87.936846, 41.730692 ], [ -87.937818, 41.730672 ], [ -87.939144, 41.730646 ], [ -87.939173, 41.731453 ], [ -87.939204, 41.732334 ], [ -87.939214, 41.732602 ], [ -87.939228, 41.733002 ], [ -87.940014, 41.73298 ], [ -87.940683, 41.73296 ], [ -87.941382, 41.732941 ], [ -87.94139, 41.732898 ], [ -87.941418, 41.732819 ], [ -87.941433, 41.732775 ], [ -87.94151, 41.73261 ], [ -87.941522, 41.73251 ], [ -87.941965, 41.732266 ], [ -87.94207, 41.732215 ], [ -87.942375, 41.732133 ], [ -87.942435, 41.732122 ], [ -87.942442, 41.732218 ], [ -87.942476, 41.73306 ], [ -87.941474, 41.733076 ], [ -87.941472, 41.733093 ], [ -87.941473, 41.733134 ], [ -87.941481, 41.733341 ], [ -87.941488, 41.73354 ], [ -87.941606, 41.733538 ], [ -87.942672, 41.733522 ], [ -87.942663, 41.733259 ], [ -87.942658, 41.733129 ], [ -87.942656, 41.733057 ], [ -87.942749, 41.733055 ], [ -87.942922, 41.733052 ], [ -87.943957, 41.733034 ], [ -87.944221, 41.73303 ], [ -87.944246, 41.733466 ], [ -87.944295, 41.734424 ], [ -87.944341, 41.737148 ], [ -87.944393, 41.738178 ], [ -87.944103, 41.738284 ], [ -87.943753, 41.739274 ], [ -87.943308, 41.739694 ], [ -87.943113, 41.739612 ], [ -87.942834, 41.739842 ], [ -87.942401, 41.740103 ], [ -87.942132, 41.740364 ], [ -87.942007, 41.740533 ], [ -87.941944, 41.740794 ], [ -87.941897, 41.741811 ], [ -87.941669, 41.742118 ], [ -87.941568, 41.742193 ], [ -87.941561, 41.742223 ], [ -87.941564, 41.742371 ], [ -87.941567, 41.742465 ], [ -87.941568, 41.742533 ], [ -87.941572, 41.742682 ], [ -87.941578, 41.74295 ], [ -87.941514, 41.742981 ], [ -87.941197, 41.743136 ], [ -87.939708, 41.744038 ], [ -87.939631, 41.744087 ], [ -87.938977, 41.744537 ], [ -87.938374, 41.744993 ], [ -87.93823, 41.745102 ], [ -87.937662, 41.745564 ], [ -87.93703, 41.746069 ], [ -87.936341, 41.746614 ], [ -87.935655, 41.74715 ], [ -87.935281, 41.747418 ], [ -87.935114, 41.747534 ], [ -87.935054, 41.747576 ], [ -87.934998, 41.747615 ], [ -87.934832, 41.747732 ], [ -87.934841, 41.74793 ], [ -87.934863, 41.748411 ], [ -87.934894, 41.749081 ], [ -87.93491, 41.749424 ], [ -87.934745, 41.749425 ], [ -87.934235, 41.749431 ], [ -87.934148, 41.749102 ], [ -87.934109, 41.74895 ], [ -87.933884, 41.749073 ], [ -87.933171, 41.749463 ], [ -87.931808, 41.75015 ], [ -87.931838, 41.750184 ], [ -87.932566, 41.751011 ], [ -87.93261, 41.75109 ], [ -87.93275, 41.751767 ], [ -87.932819, 41.751965 ], [ -87.932853, 41.752031 ], [ -87.933216, 41.75258 ], [ -87.933257, 41.752632 ], [ -87.933323, 41.752718 ], [ -87.933373, 41.752771 ], [ -87.933418, 41.752819 ], [ -87.933461, 41.752865 ], [ -87.934762, 41.754257 ], [ -87.934814, 41.754294 ], [ -87.934861, 41.754327 ], [ -87.934879, 41.754338 ], [ -87.934916, 41.754366 ], [ -87.934956, 41.754394 ], [ -87.934993, 41.75442 ], [ -87.935037, 41.754451 ], [ -87.935057, 41.754999 ], [ -87.934927, 41.755002 ], [ -87.932611, 41.755046 ], [ -87.93035, 41.755091 ], [ -87.93035, 41.75502 ], [ -87.930259, 41.755031 ], [ -87.930227, 41.755034 ], [ -87.930281, 41.756505 ], [ -87.930352, 41.756771 ], [ -87.930367, 41.757179 ], [ -87.930388, 41.757757 ], [ -87.930397, 41.757996 ], [ -87.930424, 41.758142 ], [ -87.930407, 41.758285 ], [ -87.930442, 41.759207 ], [ -87.930443, 41.759239 ], [ -87.931573, 41.759218 ], [ -87.9316, 41.759958 ], [ -87.931752, 41.759955 ], [ -87.931799, 41.759941 ], [ -87.931865, 41.759921 ], [ -87.931945, 41.759897 ], [ -87.931993, 41.759883 ], [ -87.932789, 41.759868 ], [ -87.934984, 41.759826 ], [ -87.935048, 41.759829 ], [ -87.935082, 41.75983 ], [ -87.935113, 41.759831 ], [ -87.93518, 41.759833 ], [ -87.935239, 41.759835 ], [ -87.935264, 41.760513 ], [ -87.935299, 41.761462 ], [ -87.935357, 41.763095 ], [ -87.935402, 41.764366 ], [ -87.932595, 41.765596 ], [ -87.930683, 41.766424 ], [ -87.930563, 41.766476 ], [ -87.928895, 41.767198 ], [ -87.927448, 41.76782 ], [ -87.927201, 41.767919 ], [ -87.926881, 41.768041 ], [ -87.926359, 41.768228 ], [ -87.92607, 41.768324 ], [ -87.925876, 41.768382 ], [ -87.925783, 41.76841 ], [ -87.92564, 41.768452 ], [ -87.925508, 41.768491 ], [ -87.925391, 41.768526 ], [ -87.925317, 41.768547 ], [ -87.924888, 41.76867 ], [ -87.923496, 41.769054 ], [ -87.923539, 41.770159 ], [ -87.92356, 41.770708 ], [ -87.923574, 41.771064 ], [ -87.923608, 41.771953 ], [ -87.923665, 41.773418 ], [ -87.924804, 41.773395 ], [ -87.924795, 41.772852 ], [ -87.926061, 41.772823 ], [ -87.926082, 41.773575 ], [ -87.926093, 41.773867 ], [ -87.926125, 41.774368 ], [ -87.926129, 41.774474 ], [ -87.926133, 41.774566 ], [ -87.926134, 41.774604 ], [ -87.926135, 41.774633 ], [ -87.926137, 41.774678 ], [ -87.930959, 41.774607 ], [ -87.930958, 41.774571 ], [ -87.930957, 41.774538 ], [ -87.932605, 41.774504 ], [ -87.932644, 41.774503 ], [ -87.935778, 41.774439 ], [ -87.935826, 41.774869 ], [ -87.935876, 41.776127 ], [ -87.935849, 41.776246 ], [ -87.935857, 41.776446 ], [ -87.933541, 41.776499 ], [ -87.933544, 41.776598 ], [ -87.93345, 41.776598 ], [ -87.933492, 41.777684 ], [ -87.935903, 41.777636 ], [ -87.935935, 41.778454 ], [ -87.935937, 41.778502 ], [ -87.935957, 41.779002 ], [ -87.935999, 41.780049 ], [ -87.936017, 41.780519 ], [ -87.936027, 41.780771 ], [ -87.936028, 41.780791 ], [ -87.936028, 41.780804 ], [ -87.933615, 41.780853 ], [ -87.933652, 41.781785 ], [ -87.933536, 41.781787 ], [ -87.931239, 41.781834 ], [ -87.928783, 41.781883 ], [ -87.926609, 41.781927 ], [ -87.926411, 41.781906 ], [ -87.926356, 41.781908 ], [ -87.926338, 41.781909 ], [ -87.925203, 41.781955 ], [ -87.923995, 41.78198 ], [ -87.923855, 41.781982 ], [ -87.921572, 41.782028 ], [ -87.921564, 41.781824 ], [ -87.921557, 41.781636 ], [ -87.91672, 41.781733 ], [ -87.916718, 41.781668 ], [ -87.916716, 41.781616 ], [ -87.916684, 41.780786 ], [ -87.916683, 41.78076 ], [ -87.916682, 41.780729 ], [ -87.916658, 41.780224 ], [ -87.916509, 41.780221 ], [ -87.915014, 41.780232 ], [ -87.914812, 41.780255 ], [ -87.914451, 41.780277 ], [ -87.914257, 41.780281 ], [ -87.914058, 41.780259 ], [ -87.913926, 41.780239 ], [ -87.913635, 41.780196 ], [ -87.913535, 41.780166 ], [ -87.912365, 41.780137 ], [ -87.911931, 41.780127 ], [ -87.911925, 41.780284 ], [ -87.911903, 41.780935 ], [ -87.911688, 41.783329 ], [ -87.911734, 41.785119 ], [ -87.913024, 41.785121 ], [ -87.913001, 41.788035 ], [ -87.912993, 41.788291 ], [ -87.912973, 41.789061 ], [ -87.912966, 41.789318 ], [ -87.912967, 41.789354 ], [ -87.912972, 41.789464 ], [ -87.912974, 41.789501 ], [ -87.912894, 41.789503 ], [ -87.912655, 41.789508 ], [ -87.912576, 41.789511 ], [ -87.912523, 41.789511 ], [ -87.912364, 41.789515 ], [ -87.912312, 41.789516 ], [ -87.912287, 41.789516 ], [ -87.912211, 41.789518 ], [ -87.912187, 41.789519 ], [ -87.912, 41.789522 ], [ -87.911858, 41.789525 ], [ -87.911439, 41.789535 ], [ -87.911253, 41.78954 ], [ -87.911211, 41.78954 ], [ -87.911085, 41.789544 ], [ -87.911044, 41.789545 ], [ -87.91079, 41.78955 ], [ -87.910635, 41.789553 ], [ -87.910173, 41.789566 ], [ -87.910019, 41.789571 ], [ -87.910059, 41.789407 ], [ -87.910058, 41.789382 ], [ -87.910048, 41.789352 ], [ -87.910015, 41.789298 ], [ -87.909971, 41.78926 ], [ -87.909939, 41.789246 ], [ -87.90992, 41.789238 ], [ -87.909867, 41.789227 ], [ -87.909812, 41.789225 ], [ -87.909225, 41.78924 ], [ -87.908827, 41.789244 ], [ -87.908798, 41.78924 ], [ -87.908784, 41.789239 ], [ -87.908733, 41.789222 ], [ -87.908684, 41.789191 ], [ -87.908639, 41.789136 ], [ -87.908621, 41.789082 ], [ -87.908618, 41.788955 ], [ -87.908611, 41.788679 ], [ -87.908598, 41.788147 ], [ -87.908596, 41.787851 ], [ -87.908595, 41.787576 ], [ -87.909109, 41.78756 ], [ -87.909099, 41.78741 ], [ -87.90897, 41.785424 ], [ -87.908928, 41.784762 ], [ -87.908951, 41.784737 ], [ -87.909077, 41.784626 ], [ -87.909086, 41.784619 ], [ -87.909475, 41.784336 ], [ -87.909503, 41.784306 ], [ -87.909516, 41.784274 ], [ -87.909517, 41.784234 ], [ -87.909518, 41.784219 ], [ -87.909507, 41.784123 ], [ -87.90949, 41.784034 ], [ -87.909466, 41.783903 ], [ -87.909454, 41.783725 ], [ -87.909454, 41.783557 ], [ -87.909455, 41.783423 ], [ -87.909425, 41.782998 ], [ -87.909405, 41.782947 ], [ -87.909357, 41.782878 ], [ -87.909291, 41.782818 ], [ -87.909011, 41.782611 ], [ -87.908859, 41.782498 ], [ -87.908769, 41.782432 ], [ -87.908682, 41.78237 ], [ -87.908603, 41.7823 ], [ -87.908455, 41.782127 ], [ -87.908431, 41.782097 ], [ -87.908413, 41.780829 ], [ -87.90841, 41.780576 ], [ -87.908384, 41.778665 ], [ -87.908348, 41.776016 ], [ -87.908328, 41.774496 ], [ -87.908074, 41.773894 ], [ -87.907314, 41.772088 ], [ -87.907061, 41.771486 ], [ -87.907058, 41.771446 ], [ -87.907048, 41.771391 ], [ -87.90703, 41.771195 ], [ -87.907017, 41.771053 ], [ -87.907014, 41.77098 ], [ -87.906985, 41.770735 ], [ -87.906976, 41.770476 ], [ -87.906982, 41.770322 ], [ -87.906987, 41.770217 ], [ -87.907012, 41.770032 ], [ -87.906946, 41.770024 ], [ -87.90675, 41.77 ], [ -87.906685, 41.769992 ], [ -87.906616, 41.769986 ], [ -87.906539, 41.76998 ], [ -87.90647, 41.770089 ], [ -87.906434, 41.770148 ], [ -87.906289, 41.76975 ], [ -87.906244, 41.769624 ], [ -87.906, 41.768937 ], [ -87.905628, 41.768392 ], [ -87.905255, 41.767889 ], [ -87.905001, 41.767551 ], [ -87.904751, 41.767218 ], [ -87.904567, 41.767012 ], [ -87.904121, 41.766547 ], [ -87.904108, 41.766431 ], [ -87.904089, 41.766247 ], [ -87.903891, 41.764356 ], [ -87.903877, 41.764213 ], [ -87.905294, 41.764169 ], [ -87.905545, 41.764167 ], [ -87.905636, 41.764159 ], [ -87.905668, 41.764156 ], [ -87.905699, 41.764136 ], [ -87.905808, 41.764063 ], [ -87.905436, 41.763733 ], [ -87.905191, 41.76353 ], [ -87.905161, 41.763502 ], [ -87.905311, 41.763393 ], [ -87.905298, 41.763366 ], [ -87.905253, 41.763307 ], [ -87.905239, 41.763286 ], [ -87.90513, 41.763124 ], [ -87.905066, 41.762998 ], [ -87.905029, 41.762902 ], [ -87.904995, 41.762779 ], [ -87.904976, 41.762645 ], [ -87.904977, 41.762492 ], [ -87.905002, 41.76234 ], [ -87.905054, 41.762183 ], [ -87.905097, 41.762093 ], [ -87.905175, 41.761964 ], [ -87.905216, 41.761908 ], [ -87.905315, 41.761795 ], [ -87.905396, 41.761719 ], [ -87.905727, 41.76143 ], [ -87.905875, 41.761365 ], [ -87.905987, 41.761317 ], [ -87.906313, 41.761159 ], [ -87.906459, 41.76109 ], [ -87.906448, 41.76088 ], [ -87.906443, 41.760773 ], [ -87.906422, 41.760364 ], [ -87.906416, 41.760252 ], [ -87.906406, 41.760043 ], [ -87.906404, 41.760031 ], [ -87.906405, 41.760015 ], [ -87.906405, 41.760002 ], [ -87.905731, 41.760087 ], [ -87.905595, 41.760105 ], [ -87.903721, 41.760403 ], [ -87.903311, 41.760469 ], [ -87.903049, 41.760448 ], [ -87.902937, 41.760441 ], [ -87.902601, 41.760421 ], [ -87.90249, 41.760415 ], [ -87.90213, 41.760408 ], [ -87.902026, 41.760448 ], [ -87.901382, 41.760416 ], [ -87.901211, 41.76041 ], [ -87.899713, 41.760425 ], [ -87.898288, 41.760428 ], [ -87.897314, 41.760431 ], [ -87.897267, 41.76019 ], [ -87.897215, 41.759921 ], [ -87.896799, 41.759719 ], [ -87.896579, 41.759612 ], [ -87.896578, 41.759579 ], [ -87.896575, 41.75948 ], [ -87.896575, 41.759447 ], [ -87.896562, 41.758929 ], [ -87.896532, 41.758016 ], [ -87.896699, 41.758024 ], [ -87.89833, 41.757985 ], [ -87.899438, 41.757959 ], [ -87.901379, 41.757913 ], [ -87.901345, 41.757003 ], [ -87.901279, 41.757004 ], [ -87.896492, 41.757117 ], [ -87.89648, 41.756906 ], [ -87.896471, 41.75674 ], [ -87.89647, 41.756716 ], [ -87.896468, 41.756646 ], [ -87.896468, 41.756623 ], [ -87.896465, 41.75655 ], [ -87.896459, 41.756331 ], [ -87.896458, 41.756258 ], [ -87.895853, 41.756269 ], [ -87.894037, 41.756304 ], [ -87.893433, 41.756316 ], [ -87.893073, 41.756328 ], [ -87.892685, 41.756341 ], [ -87.892488, 41.756791 ], [ -87.892589, 41.758277 ], [ -87.892634, 41.758923 ], [ -87.891815, 41.758938 ], [ -87.890181, 41.758969 ], [ -87.888466, 41.758963 ], [ -87.887562, 41.758643 ], [ -87.886831, 41.758384 ], [ -87.886827, 41.758297 ], [ -87.88682, 41.758134 ], [ -87.886814, 41.758037 ], [ -87.886809, 41.757951 ], [ -87.886805, 41.757874 ], [ -87.886796, 41.757665 ], [ -87.886761, 41.756808 ], [ -87.88675, 41.756523 ], [ -87.886743, 41.756365 ], [ -87.886726, 41.75594 ], [ -87.886724, 41.755893 ], [ -87.886718, 41.755736 ], [ -87.886703, 41.755352 ], [ -87.886692, 41.755026 ], [ -87.886656, 41.754203 ], [ -87.88664, 41.753821 ], [ -87.886636, 41.753737 ], [ -87.886633, 41.753657 ], [ -87.88663, 41.753605 ], [ -87.886624, 41.753488 ], [ -87.88662, 41.753406 ], [ -87.886618, 41.753377 ], [ -87.886615, 41.753293 ], [ -87.886614, 41.753265 ], [ -87.886609, 41.753148 ], [ -87.886608, 41.753114 ], [ -87.886559, 41.751944 ], [ -87.886556, 41.751887 ], [ -87.886507, 41.750926 ], [ -87.886469, 41.749757 ], [ -87.886442, 41.749117 ], [ -87.886387, 41.747753 ], [ -87.886344, 41.746665 ], [ -87.886318, 41.746377 ], [ -87.887464, 41.746354 ], [ -87.890763, 41.746289 ], [ -87.890904, 41.746286 ], [ -87.892052, 41.746267 ], [ -87.892087, 41.746266 ], [ -87.892192, 41.746263 ], [ -87.892227, 41.746262 ], [ -87.89236, 41.746259 ], [ -87.892387, 41.746258 ], [ -87.892538, 41.750524 ], [ -87.892561, 41.751137 ], [ -87.892687, 41.751135 ], [ -87.8928, 41.751129 ], [ -87.89322, 41.751128 ], [ -87.894484, 41.751104 ], [ -87.896066, 41.751077 ], [ -87.896128, 41.751076 ], [ -87.896265, 41.751083 ], [ -87.896256, 41.750832 ], [ -87.896243, 41.750536 ], [ -87.89624, 41.750444 ], [ -87.896235, 41.750307 ], [ -87.89623, 41.750192 ], [ -87.89591, 41.750199 ], [ -87.895001, 41.75022 ], [ -87.894358, 41.750235 ], [ -87.894356, 41.750185 ], [ -87.894342, 41.749755 ], [ -87.894327, 41.749411 ], [ -87.894191, 41.749146 ], [ -87.894266, 41.747402 ], [ -87.8946, 41.747403 ], [ -87.896027, 41.747362 ], [ -87.896103, 41.747363 ], [ -87.896101, 41.747306 ], [ -87.896086, 41.746951 ], [ -87.896011, 41.746951 ], [ -87.89477, 41.746978 ], [ -87.8948, 41.746789 ], [ -87.894809, 41.746766 ], [ -87.894827, 41.746721 ], [ -87.894854, 41.746693 ], [ -87.894891, 41.746625 ], [ -87.895026, 41.746343 ], [ -87.895034, 41.746239 ], [ -87.895039, 41.746209 ], [ -87.895056, 41.746099 ], [ -87.895163, 41.746105 ], [ -87.895887, 41.746098 ], [ -87.896051, 41.746096 ], [ -87.896049, 41.746045 ], [ -87.896048, 41.74601 ], [ -87.896039, 41.745664 ], [ -87.896036, 41.745586 ], [ -87.896025, 41.745185 ], [ -87.896008, 41.744699 ], [ -87.89599, 41.744326 ], [ -87.895989, 41.744317 ], [ -87.895981, 41.744069 ], [ -87.895978, 41.744 ], [ -87.895975, 41.743916 ], [ -87.895975, 41.743895 ], [ -87.895974, 41.743879 ], [ -87.895968, 41.743754 ], [ -87.895948, 41.743334 ], [ -87.895942, 41.743194 ], [ -87.895936, 41.743058 ], [ -87.895919, 41.74265 ], [ -87.895914, 41.742514 ], [ -87.896128, 41.74251 ], [ -87.896731, 41.742499 ], [ -87.89677, 41.742497 ], [ -87.8969, 41.742492 ], [ -87.896985, 41.742489 ], [ -87.897055, 41.742487 ], [ -87.897185, 41.742484 ], [ -87.897638, 41.742471 ], [ -87.897675, 41.742462 ], [ -87.897702, 41.742451 ], [ -87.897774, 41.74245 ], [ -87.898948, 41.742439 ], [ -87.900328, 41.742415 ], [ -87.904468, 41.742346 ], [ -87.905245, 41.742334 ], [ -87.905361, 41.742335 ], [ -87.905596, 41.742332 ], [ -87.905576, 41.74164 ], [ -87.905568, 41.741361 ], [ -87.90556, 41.741094 ], [ -87.905552, 41.740822 ], [ -87.905549, 41.740735 ], [ -87.905543, 41.740549 ], [ -87.905524, 41.739922 ], [ -87.905511, 41.739923 ], [ -87.904735, 41.739942 ], [ -87.90382, 41.739964 ], [ -87.90373, 41.739967 ], [ -87.903661, 41.73882 ], [ -87.903663, 41.738804 ], [ -87.903658, 41.738712 ], [ -87.903714, 41.738711 ], [ -87.90407, 41.738702 ], [ -87.90467, 41.738687 ], [ -87.905141, 41.738676 ], [ -87.905404, 41.738671 ], [ -87.905453, 41.73867 ], [ -87.905499, 41.738669 ], [ -87.905428, 41.738425 ], [ -87.905218, 41.737694 ], [ -87.905148, 41.737451 ], [ -87.903986, 41.737451 ], [ -87.903391, 41.737451 ], [ -87.90341, 41.736916 ], [ -87.9032, 41.73692 ], [ -87.902371, 41.736936 ], [ -87.902446, 41.738742 ], [ -87.902169, 41.73875 ], [ -87.902015, 41.738754 ], [ -87.90184, 41.738758 ], [ -87.901732, 41.73876 ], [ -87.900965, 41.738782 ], [ -87.900886, 41.738783 ], [ -87.900604, 41.738787 ], [ -87.900578, 41.738788 ], [ -87.900543, 41.738788 ], [ -87.900539, 41.738454 ], [ -87.900537, 41.738254 ], [ -87.900509, 41.737452 ], [ -87.900498, 41.737119 ], [ -87.900491, 41.736927 ], [ -87.90049, 41.736879 ], [ -87.900462, 41.736354 ], [ -87.900457, 41.736267 ], [ -87.900452, 41.736164 ], [ -87.900413, 41.735969 ], [ -87.900296, 41.735384 ], [ -87.900258, 41.735189 ], [ -87.900303, 41.73498 ], [ -87.900427, 41.73442 ], [ -87.900413, 41.734181 ], [ -87.900399, 41.733767 ], [ -87.900368, 41.73301 ], [ -87.900405, 41.733009 ], [ -87.900396, 41.732767 ], [ -87.900391, 41.732645 ], [ -87.900389, 41.732591 ], [ -87.900386, 41.732505 ], [ -87.900898, 41.732494 ], [ -87.900898, 41.732463 ], [ -87.900899, 41.73221 ], [ -87.9009, 41.732126 ], [ -87.90108, 41.732126 ], [ -87.901211, 41.732126 ], [ -87.901209, 41.732076 ], [ -87.901287, 41.732074 ], [ -87.901261, 41.731446 ], [ -87.902369, 41.73142 ], [ -87.9025, 41.731417 ], [ -87.902716, 41.731412 ], [ -87.902724, 41.731282 ], [ -87.902728, 41.731225 ], [ -87.902766, 41.730596 ], [ -87.90278, 41.730387 ], [ -87.903484, 41.730355 ], [ -87.905597, 41.73026 ], [ -87.906302, 41.730229 ], [ -87.906604, 41.730223 ], [ -87.907513, 41.730206 ], [ -87.907816, 41.730201 ], [ -87.907861, 41.730411 ], [ -87.907996, 41.731041 ], [ -87.908007, 41.73109 ], [ -87.908058, 41.731247 ], [ -87.908117, 41.731245 ], [ -87.908297, 41.73124 ], [ -87.908336, 41.731239 ], [ -87.908357, 41.731239 ], [ -87.908486, 41.731236 ], [ -87.908875, 41.731228 ], [ -87.909005, 41.731226 ], [ -87.909296, 41.731219 ], [ -87.91017, 41.7312 ], [ -87.910462, 41.731194 ], [ -87.910461, 41.728742 ], [ -87.910441, 41.728119 ], [ -87.910742, 41.728119 ], [ -87.912075, 41.728119 ], [ -87.912075, 41.727525 ], [ -87.912075, 41.7273 ], [ -87.912201, 41.727302 ], [ -87.912201, 41.727184 ], [ -87.912201, 41.726452 ], [ -87.912201, 41.726209 ], [ -87.912194, 41.725888 ], [ -87.912428, 41.72589 ], [ -87.914096, 41.725906 ], [ -87.914653, 41.725912 ], [ -87.914701, 41.725913 ], [ -87.914699, 41.725888 ], [ -87.914696, 41.725814 ], [ -87.914695, 41.72579 ], [ -87.91469, 41.725675 ], [ -87.914678, 41.725331 ], [ -87.914677, 41.7253 ], [ -87.914674, 41.725217 ], [ -87.914633, 41.724657 ], [ -87.914624, 41.724344 ], [ -87.914615, 41.724064 ], [ -87.91461, 41.723888 ], [ -87.914742, 41.723883 ], [ -87.916232, 41.723846 ], [ -87.916228, 41.72374 ], [ -87.916194, 41.722764 ], [ -87.916155, 41.721579 ], [ -87.916139, 41.721122 ], [ -87.916104, 41.720023 ], [ -87.916389, 41.719989 ], [ -87.916762, 41.71994 ], [ -87.916788, 41.720864 ], [ -87.916821, 41.721311 ], [ -87.917571, 41.721008 ], [ -87.924215, 41.718355 ], [ -87.924282, 41.720042 ], [ -87.925361, 41.720021 ], [ -87.925381, 41.720021 ], [ -87.92609, 41.720011 ], [ -87.926926, 41.719991 ], [ -87.926856, 41.717112 ], [ -87.931836, 41.714794 ], [ -87.932387, 41.714536 ], [ -87.933732, 41.713923 ], [ -87.933871, 41.713849 ], [ -87.933933, 41.716262 ], [ -87.933944, 41.716692 ], [ -87.933821, 41.716695 ], [ -87.933838, 41.717052 ], [ -87.933962, 41.717048 ], [ -87.934134, 41.717044 ], [ -87.934227, 41.717043 ], [ -87.936274, 41.716999 ], [ -87.93622, 41.715377 ], [ -87.936138, 41.712894 ], [ -87.936918, 41.712508 ], [ -87.93708, 41.712505 ], [ -87.938506, 41.71248 ], [ -87.938563, 41.712478 ], [ -87.938678, 41.716098 ], [ -87.940012, 41.71607 ], [ -87.939996, 41.715568 ], [ -87.939992, 41.715429 ], [ -87.939956, 41.714255 ], [ -87.940164, 41.71425 ], [ -87.940155, 41.714125 ], [ -87.940129, 41.713312 ], [ -87.940457, 41.713308 ], [ -87.940945, 41.713308 ], [ -87.940928, 41.71242 ], [ -87.941004, 41.712419 ], [ -87.941007, 41.712528 ], [ -87.941009, 41.712612 ], [ -87.941027, 41.713308 ], [ -87.941054, 41.71423 ], [ -87.941069, 41.714712 ], [ -87.941707, 41.714698 ], [ -87.941709, 41.714753 ], [ -87.941986, 41.714747 ], [ -87.941981, 41.714624 ], [ -87.94197, 41.714211 ], [ -87.942332, 41.714205 ], [ -87.943201, 41.714183 ], [ -87.943476, 41.714181 ], [ -87.943483, 41.714431 ], [ -87.943489, 41.714629 ], [ -87.943618, 41.714631 ], [ -87.943687, 41.71463 ], [ -87.944965, 41.714603 ], [ -87.945034, 41.714601 ], [ -87.945172, 41.714599 ], [ -87.945263, 41.714596 ], [ -87.945262, 41.714722 ] ], [ [ -87.936446, 41.722208 ], [ -87.936444, 41.72214 ], [ -87.935449, 41.722162 ], [ -87.934563, 41.722182 ], [ -87.933982, 41.722195 ], [ -87.933983, 41.722241 ], [ -87.93399, 41.722446 ], [ -87.93414, 41.722455 ], [ -87.934151, 41.722716 ], [ -87.93458, 41.722705 ], [ -87.934809, 41.7227 ], [ -87.934821, 41.723043 ], [ -87.934832, 41.723366 ], [ -87.934839, 41.723456 ], [ -87.935465, 41.723443 ], [ -87.936116, 41.723429 ], [ -87.936116, 41.72332 ], [ -87.936097, 41.722738 ], [ -87.936463, 41.722731 ], [ -87.936446, 41.722208 ] ], [ [ -87.931379, 41.753971 ], [ -87.930258, 41.753993 ], [ -87.930264, 41.754394 ], [ -87.93027, 41.754418 ], [ -87.930301, 41.754529 ], [ -87.931159, 41.754517 ], [ -87.931342, 41.754515 ], [ -87.931406, 41.754514 ], [ -87.931379, 41.753971 ] ], [ [ -87.917863, 41.723718 ], [ -87.917859, 41.723409 ], [ -87.917855, 41.723224 ], [ -87.917308, 41.723235 ], [ -87.917138, 41.723238 ], [ -87.917122, 41.723031 ], [ -87.917113, 41.722911 ], [ -87.917119, 41.722502 ], [ -87.91711, 41.722415 ], [ -87.916836, 41.722421 ], [ -87.91684, 41.722501 ], [ -87.916847, 41.722821 ], [ -87.916854, 41.72304 ], [ -87.916875, 41.72373 ], [ -87.916878, 41.723831 ], [ -87.917577, 41.723815 ], [ -87.917865, 41.723812 ], [ -87.917863, 41.723718 ] ], [ [ -87.907576, 41.767943 ], [ -87.907567, 41.767922 ], [ -87.907553, 41.767904 ], [ -87.907504, 41.767878 ], [ -87.907464, 41.767869 ], [ -87.906975, 41.767875 ], [ -87.90676, 41.767858 ], [ -87.906591, 41.76786 ], [ -87.906595, 41.76791 ], [ -87.906643, 41.768941 ], [ -87.906648, 41.768988 ], [ -87.906852, 41.768938 ], [ -87.906914, 41.768902 ], [ -87.906947, 41.76887 ], [ -87.907572, 41.768 ], [ -87.907578, 41.767962 ], [ -87.907576, 41.767943 ] ] ] } }
]
}
